{
    "links": {
        "self": "http://www.neowsapp.com/rest/v1/neo/3617080?api_key=iIulBulltgU6a56xZRHN4H3l9WmuAYTsLGpBGhQ2"
    },
    "id": "3617080",
    "neo_reference_id": "3617080",
    "name": "(2012 VG26)",
    "designation": "2012 VG26",
    "nasa_jpl_url": "http://ssd.jpl.nasa.gov/sbdb.cgi?sstr=3617080",
    "absolute_magnitude_h": 22.4,
    "estimated_diameter": {
        "kilometers": {
            "estimated_diameter_min": 0.0880146521,
            "estimated_diameter_max": 0.1968067451
        },
        "meters": {
            "estimated_diameter_min": 88.0146520901,
            "estimated_diameter_max": 196.8067450894
        },
        "miles": {
            "estimated_diameter_min": 0.0546897524,
            "estimated_diameter_max": 0.122290004
        },
        "feet": {
            "estimated_diameter_min": 288.7619911632,
            "estimated_diameter_max": 645.6914415591
        }
    },
    "is_potentially_hazardous_asteroid": false,
    "close_approach_data": [
        {
            "close_approach_date": "2012-10-25",
            "close_approach_date_full": "2012-Oct-25 09:54",
            "epoch_date_close_approach": 1351158840000,
            "relative_velocity": {
                "kilometers_per_second": "12.1377632476",
                "kilometers_per_hour": "43695.9476911958",
                "miles_per_hour": "27150.9626084544"
            },
            "miss_distance": {
                "astronomical": "0.1821830606",
                "lunar": "70.8692105734",
                "kilometers": "27254197.815840922",
                "miles": "16934973.2376198436"
            },
            "orbiting_body": "Earth"
        }
    ],
    "orbital_data": {
        "orbit_id": "9",
        "orbit_determination_date": "2017-04-06 08:48:06",
        "first_observation_date": "2012-11-07",
        "last_observation_date": "2012-11-24",
        "data_arc_in_days": 17,
        "observations_used": 43,
        "orbit_uncertainty": "8",
        "minimum_orbit_intersection": ".180157",
        "jupiter_tisserand_invariant": "3.182",
        "epoch_osculation": "2456243.5",
        "eccentricity": ".5462491674014891",
        "semi_major_axis": "2.489217243167473",
        "inclination": "19.63016556703477",
        "ascending_node_longitude": "44.858132906817",
        "orbital_period": "1434.473824833102",
        "perihelion_distance": "1.129484396605811",
        "perihelion_argument": "326.5738523965117",
        "aphelion_distance": "3.848950089729136",
        "perihelion_time": "2456204.333754997710",
        "mean_anomaly": "9.829282317134565",
        "mean_motion": ".2509631014298118",
        "equinox": "J2000",
        "orbit_class": {
            "orbit_class_type": "AMO",
            "orbit_class_description": "Near-Earth asteroid orbits similar to that of 1221 Amor",
            "orbit_class_range": "1.017 AU < q (perihelion) < 1.3 AU"
        }
    },
    "is_sentry_object": false
}